start=new Date('2022-01-30T00:00:00.000Z').valueOf();
sats=[{"TIME_SYSTEM":"UTC","ARG_OF_PERICENTER":"355.4077","RCS_SIZE":"LARGE","REV_AT_EPOCH":"5686","RA_OF_ASC_NODE":"162.4526","CENTER_NAME":"EARTH","MEAN_MOTION_DOT":"0.40378414","COUNTRY_CODE":"US","EPOCH":"2022-01-29T09:32:04.623072","ECCENTRICITY":"0.00048020","APOAPSIS":"157.886","CLASSIFICATION_TYPE":"U","NORAD_CAT_ID":"47584","TLE_LINE2":"2 47584  53.0303 162.4526 0004802 355.4077 114.0983 16.44164711 56861","EPHEMERIS_TYPE":"0","MEAN_MOTION_DDOT":"0.0000125510000","DECAY_DATE":null,"PERIOD":"87.582","MEAN_ANOMALY":"114.0983","INCLINATION":"53.0303","MEAN_ELEMENT_THEORY":"SGP4","PERIAPSIS":"151.612","LAUNCH_DATE":"2021-02-04","GP_ID":"194855199","SITE":"AFETR","SEMIMAJOR_AXIS":"6532.884","REF_FRAME":"TEME","OBJECT_NAME":"STARLINK-1988","OBJECT_ID":"2021-009AN","ELEMENT_SET_NO":"999","FILE":"3286559","BSTAR":"0.00144640000000","MEAN_MOTION":"16.44164711","OBJECT_TYPE":"PAYLOAD","TLE_LINE1":"1 47584U 21009AN  22029.39727573  .40378414  12551-4  14464-2 0  9998"},{"CLASSIFICATION_TYPE":"U","ECCENTRICITY":"0.00010160","APOAPSIS":"547.936","EPOCH":"2022-01-29T22:05:45.360960","COUNTRY_CODE":"US","MEAN_MOTION_DOT":"-0.00000724","CENTER_NAME":"EARTH","RA_OF_ASC_NODE":"274.3429","REV_AT_EPOCH":"5474","RCS_SIZE":"LARGE","ARG_OF_PERICENTER":"350.9849","TIME_SYSTEM":"UTC","TLE_LINE1":"1 47585U 21009AP  22029.92066390 -.00000724  00000-0 -29749-4 0  9991","MEAN_MOTION":"15.06393869","OBJECT_TYPE":"PAYLOAD","BSTAR":"-0.00002974900000","FILE":"3287083","ELEMENT_SET_NO":"999","OBJECT_ID":"2021-009AP","SITE":"AFETR","REF_FRAME":"TEME","SEMIMAJOR_AXIS":"6925.367","OBJECT_NAME":"STARLINK-1989","GP_ID":"194913874","LAUNCH_DATE":"2021-02-04","MEAN_ELEMENT_THEORY":"SGP4","PERIAPSIS":"546.529","INCLINATION":"53.0543","MEAN_ANOMALY":"9.1122","PERIOD":"95.593","DECAY_DATE":null,"MEAN_MOTION_DDOT":"0.0000000000000","EPHEMERIS_TYPE":"0","TLE_LINE2":"2 47585  53.0543 274.3429 0001016 350.9849   9.1122 15.06393869 54743","NORAD_CAT_ID":"47585"},{"RA_OF_ASC_NODE":"294.4162","CENTER_NAME":"EARTH","TIME_SYSTEM":"UTC","ARG_OF_PERICENTER":"64.8182","RCS_SIZE":"LARGE","REV_AT_EPOCH":"5446","EPOCH":"2022-01-29T21:41:52.097280","APOAPSIS":"548.331","ECCENTRICITY":"0.00015940","CLASSIFICATION_TYPE":"U","MEAN_MOTION_DOT":"0.00001355","COUNTRY_CODE":"US","MEAN_MOTION_DDOT":"0.0000000000000","DECAY_DATE":null,"MEAN_ANOMALY":"295.2973","PERIOD":"95.592","INCLINATION":"53.0559","MEAN_ELEMENT_THEORY":"SGP4","PERIAPSIS":"546.124","NORAD_CAT_ID":"47586","EPHEMERIS_TYPE":"0","TLE_LINE2":"2 47586  53.0559 294.4162 0001594  64.8182 295.2973 15.06395465 54465","OBJECT_ID":"2021-009AQ","ELEMENT_SET_NO":"999","BSTAR":"0.00010985000000","FILE":"3287083","OBJECT_TYPE":"PAYLOAD","MEAN_MOTION":"15.06395465","TLE_LINE1":"1 47586U 21009AQ  22029.90407520  .00001355  00000-0  10985-3 0  9994","LAUNCH_DATE":"2021-02-04","GP_ID":"194913121","OBJECT_NAME":"STARLINK-1990","SITE":"AFETR","SEMIMAJOR_AXIS":"6925.362","REF_FRAME":"TEME"},{"EPOCH":"2022-01-29T21:35:16.172736","ECCENTRICITY":"0.00019580","APOAPSIS":"548.605","CLASSIFICATION_TYPE":"U","MEAN_MOTION_DOT":"0.00000834","COUNTRY_CODE":"US","RA_OF_ASC_NODE":"264.4478","CENTER_NAME":"EARTH","ARG_OF_PERICENTER":"71.8401","TIME_SYSTEM":"UTC","REV_AT_EPOCH":"5488","RCS_SIZE":"LARGE","OBJECT_ID":"2021-009AR","ELEMENT_SET_NO":"999","FILE":"3287083","BSTAR":"0.00007492000000","TLE_LINE1":"1 47587U 21009AR  22029.89949274  .00000834  00000-0  74920-4 0  9991","MEAN_MOTION":"15.06388297","OBJECT_TYPE":"PAYLOAD","GP_ID":"194913372","LAUNCH_DATE":"2021-02-04","SITE":"AFETR","OBJECT_NAME":"STARLINK-1991","SEMIMAJOR_AXIS":"6925.384","REF_FRAME":"TEME","MEAN_MOTION_DDOT":"0.0000000000000","MEAN_ANOMALY":"288.2801","PERIOD":"95.593","DECAY_DATE":null,"PERIAPSIS":"545.893","MEAN_ELEMENT_THEORY":"SGP4","INCLINATION":"53.0553","TLE_LINE2":"2 47587  53.0553 264.4478 0001958  71.8401 288.2801 15.06388297 54886","EPHEMERIS_TYPE":"0","NORAD_CAT_ID":"47587"},{"NORAD_CAT_ID":"47588","EPHEMERIS_TYPE":"0","TLE_LINE2":"2 47588  53.0522 274.4772 0001929  65.2439 294.8751 15.06394781 54744","MEAN_MOTION_DDOT":"0.0000000000000","DECAY_DATE":null,"PERIOD":"95.592","MEAN_ANOMALY":"294.8751","INCLINATION":"53.0522","PERIAPSIS":"545.894","MEAN_ELEMENT_THEORY":"SGP4","LAUNCH_DATE":"2021-02-04","GP_ID":"194913624","SITE":"AFETR","OBJECT_NAME":"STARLINK-1993","SEMIMAJOR_AXIS":"6925.365","REF_FRAME":"TEME","OBJECT_ID":"2021-009AS","ELEMENT_SET_NO":"999","FILE":"3287083","BSTAR":"-0.00005639300000","OBJECT_TYPE":"PAYLOAD","MEAN_MOTION":"15.06394781","TLE_LINE1":"1 47588U 21009AS  22029.89117358 -.00001121  00000-0 -56393-4 0  9998","TIME_SYSTEM":"UTC","ARG_OF_PERICENTER":"65.2439","RCS_SIZE":"LARGE","REV_AT_EPOCH":"5474","RA_OF_ASC_NODE":"274.4772","CENTER_NAME":"EARTH","MEAN_MOTION_DOT":"-0.00001121","COUNTRY_CODE":"US","EPOCH":"2022-01-29T21:23:17.397312","ECCENTRICITY":"0.00019290","APOAPSIS":"548.565","CLASSIFICATION_TYPE":"U"},{"NORAD_CAT_ID":"47589","TLE_LINE2":"2 47589  53.0550 274.4000 0001876  69.0222 291.0968 15.06393786 54746","EPHEMERIS_TYPE":"0","DECAY_DATE":null,"PERIOD":"95.593","MEAN_ANOMALY":"291.0968","INCLINATION":"53.0550","PERIAPSIS":"545.933","MEAN_ELEMENT_THEORY":"SGP4","MEAN_MOTION_DDOT":"0.0000000000000","SITE":"AFETR","REF_FRAME":"TEME","SEMIMAJOR_AXIS":"6925.368","OBJECT_NAME":"STARLINK-1994","LAUNCH_DATE":"2021-02-04","GP_ID":"194914374","FILE":"3287083","BSTAR":"0.00025978000000","MEAN_MOTION":"15.06393786","OBJECT_TYPE":"PAYLOAD","TLE_LINE1":"1 47589U 21009AT  22029.90962266  .00003589  00000-0  25978-3 0  9999","OBJECT_ID":"2021-009AT","ELEMENT_SET_NO":"999","TIME_SYSTEM":"UTC","ARG_OF_PERICENTER":"69.0222","RCS_SIZE":"LARGE","REV_AT_EPOCH":"5474","RA_OF_ASC_NODE":"274.4000","CENTER_NAME":"EARTH","COUNTRY_CODE":"US","MEAN_MOTION_DOT":"0.00003589","APOAPSIS":"548.532","ECCENTRICITY":"0.00018760","CLASSIFICATION_TYPE":"U","EPOCH":"2022-01-29T21:49:51.397824"},{"NORAD_CAT_ID":"47590","TLE_LINE2":"2 47590  53.0561 294.4364 0001924  58.0293 302.0882 15.06392644 54464","EPHEMERIS_TYPE":"0","DECAY_DATE":null,"PERIOD":"95.593","MEAN_ANOMALY":"302.0882","INCLINATION":"53.0561","MEAN_ELEMENT_THEORY":"SGP4","PERIAPSIS":"545.904","MEAN_MOTION_DDOT":"0.0000000000000","SITE":"AFETR","REF_FRAME":"TEME","SEMIMAJOR_AXIS":"6925.371","OBJECT_NAME":"STARLINK-1995","LAUNCH_DATE":"2021-02-04","GP_ID":"194912622","BSTAR":"0.00000700010000","FILE":"3287083","OBJECT_TYPE":"PAYLOAD","MEAN_MOTION":"15.06392644","TLE_LINE1":"1 47590U 21009AU  22029.90038889 -.00000177  00000-0  70001-5 0  9996","OBJECT_ID":"2021-009AU","ELEMENT_SET_NO":"999","TIME_SYSTEM":"UTC","ARG_OF_PERICENTER":"58.0293","RCS_SIZE":"LARGE","REV_AT_EPOCH":"5446","RA_OF_ASC_NODE":"294.4364","CENTER_NAME":"EARTH","COUNTRY_CODE":"US","MEAN_MOTION_DOT":"-0.00000177","ECCENTRICITY":"0.00019240","APOAPSIS":"548.569","CLASSIFICATION_TYPE":"U","EPOCH":"2022-01-29T21:36:33.600096"},{"COUNTRY_CODE":"US","MEAN_MOTION_DOT":"0.00000538","APOAPSIS":"548.374","ECCENTRICITY":"0.00016120","CLASSIFICATION_TYPE":"U","EPOCH":"2022-01-29T21:44:31.903584","TIME_SYSTEM":"UTC","ARG_OF_PERICENTER":"69.1533","RCS_SIZE":"LARGE","REV_AT_EPOCH":"5474","RA_OF_ASC_NODE":"274.4104","CENTER_NAME":"EARTH","SITE":"AFETR","REF_FRAME":"TEME","SEMIMAJOR_AXIS":"6925.393","OBJECT_NAME":"STARLINK-1996","LAUNCH_DATE":"2021-02-04","GP_ID":"194912873","FILE":"3287083","BSTAR":"0.00005506100000","OBJECT_TYPE":"PAYLOAD","MEAN_MOTION":"15.06385493","TLE_LINE1":"1 47591U 21009AV  22029.90592481  .00000538  00000-0  55061-4 0  9998","OBJECT_ID":"2021-009AV","ELEMENT_SET_NO":"999","NORAD_CAT_ID":"47591","EPHEMERIS_TYPE":"0","TLE_LINE2":"2 47591  53.0567 274.4104 0001612  69.1533 290.9629 15.06385493 54744","DECAY_DATE":null,"MEAN_ANOMALY":"290.9629","PERIOD":"95.593","INCLINATION":"53.0567","MEAN_ELEMENT_THEORY":"SGP4","PERIAPSIS":"546.142","MEAN_MOTION_DDOT":"0.0000000000000"},{"COUNTRY_CODE":"US","MEAN_MOTION_DOT":"0.00002850","APOAPSIS":"548.438","ECCENTRICITY":"0.00017870","CLASSIFICATION_TYPE":"U","EPOCH":"2022-01-29T20:54:06.328512","TIME_SYSTEM":"UTC","ARG_OF_PERICENTER":"69.7294","RCS_SIZE":"LARGE","REV_AT_EPOCH":"5445","RA_OF_ASC_NODE":"294.5803","CENTER_NAME":"EARTH","SITE":"AFETR","REF_FRAME":"TEME","SEMIMAJOR_AXIS":"6925.335","OBJECT_NAME":"STARLINK-1997","LAUNCH_DATE":"2021-02-04","GP_ID":"194914124","BSTAR":"0.00021011000000","FILE":"3287083","OBJECT_TYPE":"PAYLOAD","MEAN_MOTION":"15.06404419","TLE_LINE1":"1 47592U 21009AW  22029.87090658  .00002850  00000-0  21011-3 0  9990","OBJECT_ID":"2021-009AW","ELEMENT_SET_NO":"999","NORAD_CAT_ID":"47592","EPHEMERIS_TYPE":"0","TLE_LINE2":"2 47592  53.0538 294.5803 0001787  69.7294 290.3887 15.06404419 54453","DECAY_DATE":null,"MEAN_ANOMALY":"290.3887","PERIOD":"95.592","INCLINATION":"53.0538","PERIAPSIS":"545.962","MEAN_ELEMENT_THEORY":"SGP4","MEAN_MOTION_DDOT":"0.0000000000000"},{"RCS_SIZE":"LARGE","REV_AT_EPOCH":"5439","TIME_SYSTEM":"UTC","ARG_OF_PERICENTER":"56.6375","CENTER_NAME":"EARTH","RA_OF_ASC_NODE":"296.4888","COUNTRY_CODE":"US","MEAN_MOTION_DOT":"-0.00000031","CLASSIFICATION_TYPE":"U","APOAPSIS":"548.614","ECCENTRICITY":"0.00019980","EPOCH":"2022-01-29T10:38:24.675360","NORAD_CAT_ID":"47593","EPHEMERIS_TYPE":"0","TLE_LINE2":"2 47593  53.0541 296.4888 0001998  56.6375 303.4805 15.06394451 54394","INCLINATION":"53.0541","MEAN_ELEMENT_THEORY":"SGP4","PERIAPSIS":"545.847","DECAY_DATE":null,"MEAN_ANOMALY":"303.4805","PERIOD":"95.592","MEAN_MOTION_DDOT":"0.0000000000000","SITE":"AFETR","OBJECT_NAME":"STARLINK-1998","SEMIMAJOR_AXIS":"6925.366","REF_FRAME":"TEME","LAUNCH_DATE":"2021-02-04","GP_ID":"194884350","MEAN_MOTION":"15.06394451","OBJECT_TYPE":"PAYLOAD","TLE_LINE1":"1 47593U 21009AX  22029.44334115 -.00000031  00000-0  16827-4 0  9993","FILE":"3286885","BSTAR":"0.00001682700000","ELEMENT_SET_NO":"999","OBJECT_ID":"2021-009AX"}];
